{
  "type": "FeatureCollection",
  "features": [
    {
      "type": "Feature",
      "properties": {
        "norad_id": 41026,
        "name": "YAOGAN-28",
        "group": "resource",
        "lat": 61.0797166633139,
        "lon": -28.06536946222861,
        "alt_km": 479.2724503729687,
        "timestamp": "2025-12-27T03:58:43.835341+00:00",
        "meta_object_name": "YAOGAN-28",
        "meta_object_id": "2015-064A",
        "meta_epoch": "2025-12-26T21:09:47.373120",
        "meta_mean_motion": 15.24578054,
        "meta_eccentricity": 0.0012637,
        "meta_inclination": 97.2815,
        "meta_ra_of_asc_node": 138.2772,
        "meta_arg_of_pericenter": 81.2141,
        "meta_mean_anomaly": 279.0528,
        "meta_ephemeris_type": 0,
        "meta_classification_type": "U",
        "meta_norad_cat_id": 41026,
        "meta_element_set_no": 999,
        "meta_rev_at_epoch": 56440,
        "meta_bstar": 0.00035373,
        "meta_mean_motion_dot": 8.668e-05,
        "meta_mean_motion_ddot": 0,
        "tle_line1": "1 41026U 15064A   25360.88179830  .00008668  00000+0  35373-3 0  9990",
        "tle_line2": "2 41026  97.2815 138.2772 0012637  81.2141 279.0528 15.24578054564406"
      },
      "geometry": {
        "type": "Point",
        "coordinates": [
          -28.06536946222861,
          61.0797166633139
        ]
      }
    },
    {
      "type": "Feature",
      "properties": {
        "norad_id": 41038,
        "name": "YAOGAN-29",
        "group": "resource",
        "lat": -38.843146899700876,
        "lon": -162.13717671424487,
        "alt_km": 626.3536477473262,
        "timestamp": "2025-12-27T03:58:43.835350+00:00",
        "meta_object_name": "YAOGAN-29",
        "meta_object_id": "2015-069A",
        "meta_epoch": "2025-12-26T20:30:56.295072",
        "meta_mean_motion": 14.82897601,
        "meta_eccentricity": 9.9e-05,
        "meta_inclination": 98.0208,
        "meta_ra_of_asc_node": 24.0707,
        "meta_arg_of_pericenter": 157.5431,
        "meta_mean_anomaly": 202.5825,
        "meta_ephemeris_type": 0,
        "meta_classification_type": "U",
        "meta_norad_cat_id": 41038,
        "meta_element_set_no": 999,
        "meta_rev_at_epoch": 54508,
        "meta_bstar": 4.33e-05,
        "meta_mean_motion_dot": 2.97e-06,
        "meta_mean_motion_ddot": 0,
        "tle_line1": "1 41038U 15069A   25360.85481823  .00000297  00000+0  43300-4 0  9993",
        "tle_line2": "2 41038  98.0208  24.0707 0000990 157.5431 202.5825 14.82897601545081"
      },
      "geometry": {
        "type": "Point",
        "coordinates": [
          -162.13717671424487,
          -38.843146899700876
        ]
      }
    },
    {
      "type": "Feature",
      "properties": {
        "norad_id": 41167,
        "name": "KENT RIDGE 1",
        "group": "resource",
        "lat": -6.668130850301549,
        "lon": -49.979875389102794,
        "alt_km": 502.2181253870476,
        "timestamp": "2025-12-27T03:58:43.835359+00:00",
        "meta_object_name": "KENT RIDGE 1",
        "meta_object_id": "2015-077B",
        "meta_epoch": "2025-12-26T12:55:02.392032",
        "meta_mean_motion": 15.21738831,
        "meta_eccentricity": 0.0008524,
        "meta_inclination": 14.9791,
        "meta_ra_of_asc_node": 108.7428,
        "meta_arg_of_pericenter": 325.4812,
        "meta_mean_anomaly": 34.4956,
        "meta_ephemeris_type": 0,
        "meta_classification_type": "U",
        "meta_norad_cat_id": 41167,
        "meta_element_set_no": 999,
        "meta_rev_at_epoch": 55474,
        "meta_bstar": 0.00016759,
        "meta_mean_motion_dot": 4.67e-05,
        "meta_mean_motion_ddot": 0,
        "tle_line1": "1 41167U 15077B   25360.53822213  .00004670  00000+0  16759-3 0  9998",
        "tle_line2": "2 41167  14.9791 108.7428 0008524 325.4812  34.4956 15.21738831554741"
      },
      "geometry": {
        "type": "Point",
        "coordinates": [
          -49.979875389102794,
          -6.668130850301549
        ]
      }
    },
    {
      "type": "Feature",
      "properties": {
        "norad_id": 41194,
        "name": "GAOFEN-4",
        "group": "resource",
        "lat": -0.015000377881962351,
        "lon": -98.6976500222884,
        "alt_km": 35785.86172338268,
        "timestamp": "2025-12-27T03:58:43.835371+00:00",
        "meta_object_name": "GAOFEN-4",
        "meta_object_id": "2015-083A",
        "meta_epoch": "2025-12-26T18:07:38.790048",
        "meta_mean_motion": 1.00269051,
        "meta_eccentricity": 0.000282,
        "meta_inclination": 0.204,
        "meta_ra_of_asc_node": 82.008,
        "meta_arg_of_pericenter": 94.4058,
        "meta_mean_anomaly": 296.6921,
        "meta_ephemeris_type": 0,
        "meta_classification_type": "U",
        "meta_norad_cat_id": 41194,
        "meta_element_set_no": 999,
        "meta_rev_at_epoch": 3680,
        "meta_bstar": 0,
        "meta_mean_motion_dot": -3.12e-06,
        "meta_mean_motion_ddot": 0,
        "tle_line1": "1 41194U 15083A   25360.75531007 -.00000312  00000+0  00000+0 0  9995",
        "tle_line2": "2 41194   0.2040  82.0080 0002820  94.4058 296.6921  1.00269051 36803"
      },
      "geometry": {
        "type": "Point",
        "coordinates": [
          -98.6976500222884,
          -0.015000377881962351
        ]
      }
    },
    {
      "type": "Feature",
      "properties": {
        "norad_id": 41240,
        "name": "JASON-3",
        "group": "resource",
        "lat": -32.660218439461175,
        "lon": -35.94551076507449,
        "alt_km": 1312.8721164254766,
        "timestamp": "2025-12-27T03:58:43.835381+00:00",
        "meta_object_name": "JASON-3",
        "meta_object_id": "2016-002A",
        "meta_epoch": "2025-12-26T19:24:11.654208",
        "meta_mean_motion": 12.87627185,
        "meta_eccentricity": 0.0007331,
        "meta_inclination": 66.0408,
        "meta_ra_of_asc_node": 128.2462,
        "meta_arg_of_pericenter": 271.6694,
        "meta_mean_anomaly": 88.3485,
        "meta_ephemeris_type": 0,
        "meta_classification_type": "U",
        "meta_norad_cat_id": 41240,
        "meta_element_set_no": 999,
        "meta_rev_at_epoch": 46505,
        "meta_bstar": 0.00018206,
        "meta_mean_motion_dot": -1.6e-07,
        "meta_mean_motion_ddot": 0,
        "tle_line1": "1 41240U 16002A   25360.80846822 -.00000016  00000+0  18206-3 0  9991",
        "tle_line2": "2 41240  66.0408 128.2462 0007331 271.6694  88.3485 12.87627185465054"
      },
      "geometry": {
        "type": "Point",
        "coordinates": [
          -35.94551076507449,
          -32.660218439461175
        ]
      }
    },
    {
      "type": "Feature",
      "properties": {
        "norad_id": 41335,
        "name": "SENTINEL-3A",
        "group": "resource",
        "lat": -65.29863251155022,
        "lon": -133.3010636386384,
        "alt_km": 810.4124905513199,
        "timestamp": "2025-12-27T03:58:43.835390+00:00",
        "meta_object_name": "SENTINEL-3A",
        "meta_object_id": "2016-011A",
        "meta_epoch": "2025-12-26T20:05:36.646080",
        "meta_mean_motion": 14.26736078,
        "meta_eccentricity": 8.89e-05,
        "meta_inclination": 98.6296,
        "meta_ra_of_asc_node": 65.6529,
        "meta_arg_of_pericenter": 97.7648,
        "meta_mean_anomaly": 262.3633,
        "meta_ephemeris_type": 0,
        "meta_classification_type": "U",
        "meta_norad_cat_id": 41335,
        "meta_element_set_no": 999,
        "meta_rev_at_epoch": 51348,
        "meta_bstar": 7.6997e-05,
        "meta_mean_motion_dot": 1.43e-06,
        "meta_mean_motion_ddot": 0,
        "tle_line1": "1 41335U 16011A   25360.83722970  .00000143  00000+0  76997-4 0  9998",
        "tle_line2": "2 41335  98.6296  65.6529 0000889  97.7648 262.3633 14.26736078513487"
      },
      "geometry": {
        "type": "Point",
        "coordinates": [
          -133.3010636386384,
          -65.29863251155022
        ]
      }
    },
    {
      "type": "Feature",
      "properties": {
        "norad_id": 41556,
        "name": "ZIYUAN 3-02 (ZY 3-02)",
        "group": "resource",
        "lat": -38.94167976017339,
        "lon": -110.94006417588638,
        "alt_km": 501.4467711294983,
        "timestamp": "2025-12-27T03:58:43.835400+00:00",
        "meta_object_name": "ZIYUAN 3-02 (ZY 3-02)",
        "meta_object_id": "2016-033A",
        "meta_epoch": "2025-12-26T20:42:12.797568",
        "meta_mean_motion": 15.21257111,
        "meta_eccentricity": 0.0011576,
        "meta_inclination": 97.4022,
        "meta_ra_of_asc_node": 74.7925,
        "meta_arg_of_pericenter": 193.6153,
        "meta_mean_anomaly": 166.4773,
        "meta_ephemeris_type": 0,
        "meta_classification_type": "U",
        "meta_norad_cat_id": 41556,
        "meta_element_set_no": 999,
        "meta_rev_at_epoch": 53178,
        "meta_bstar": 0.00034073,
        "meta_mean_motion_dot": 7.558e-05,
        "meta_mean_motion_ddot": 0,
        "tle_line1": "1 41556U 16033A   25360.86264812  .00007558  00000+0  34073-3 0  9991",
        "tle_line2": "2 41556  97.4022  74.7925 0011576 193.6153 166.4773 15.21257111531783"
      },
      "geometry": {
        "type": "Point",
        "coordinates": [
          -110.94006417588638,
          -38.94167976017339
        ]
      }
    }
  ]
}